{
  "type": "FeatureCollection",
  "features": [
    {
      "type": "Feature",
      "properties": {
        "norad_id": 33412,
        "name": "COSMO-SKYMED 3",
        "group": "resource",
        "lat": -15.316186306608776,
        "lon": 23.98829986712951,
        "alt_km": 547.9478192351644,
        "timestamp": "2025-12-21T14:40:47.567390+00:00",
        "meta_object_name": "COSMO-SKYMED 3",
        "meta_object_id": "2008-054A",
        "meta_epoch": "2025-12-21T05:50:23.516736",
        "meta_mean_motion": 15.05422919,
        "meta_eccentricity": 0.00169606,
        "meta_inclination": 97.8463,
        "meta_ra_of_asc_node": 205.7783,
        "meta_arg_of_pericenter": 143.4906,
        "meta_mean_anomaly": 216.748,
        "meta_ephemeris_type": 0,
        "meta_classification_type": "U",
        "meta_norad_cat_id": 33412,
        "meta_element_set_no": 999,
        "meta_rev_at_epoch": 93015,
        "meta_bstar": 8.4203421e-05,
        "meta_mean_motion_dot": 1.146e-05,
        "meta_mean_motion_ddot": 0,
        "tle_line1": "1 33412U 08054A   25355.24332774  .00001146  00000+0  84203-4 0  9994",
        "tle_line2": "2 33412  97.8463 205.7783 0016960 143.4906 216.7480 15.05422919930157"
      },
      "geometry": {
        "type": "Point",
        "coordinates": [
          23.98829986712951,
          -15.316186306608776
        ]
      }
    },
    {
      "type": "Feature",
      "properties": {
        "norad_id": 33446,
        "name": "YAOGAN-4",
        "group": "resource",
        "lat": 7.429073806830472,
        "lon": 106.66406764212115,
        "alt_km": 627.3957470105315,
        "timestamp": "2025-12-21T14:40:47.567400+00:00",
        "meta_object_name": "YAOGAN-4",
        "meta_object_id": "2008-061A",
        "meta_epoch": "2025-12-20T07:07:49.061568",
        "meta_mean_motion": 14.82702731,
        "meta_eccentricity": 0.00131175,
        "meta_inclination": 97.9192,
        "meta_ra_of_asc_node": 284.3224,
        "meta_arg_of_pericenter": 296.7402,
        "meta_mean_anomaly": 63.2469,
        "meta_ephemeris_type": 0,
        "meta_classification_type": "U",
        "meta_norad_cat_id": 33446,
        "meta_element_set_no": 999,
        "meta_rev_at_epoch": 91915,
        "meta_bstar": 0.000123707,
        "meta_mean_motion_dot": 9.46e-06,
        "meta_mean_motion_ddot": 0,
        "tle_line1": "1 33446U 08061A   25354.29709562  .00000946  00000+0  12371-3 0  9999",
        "tle_line2": "2 33446  97.9192 284.3224 0013117 296.7402  63.2469 14.82702731919157"
      },
      "geometry": {
        "type": "Point",
        "coordinates": [
          106.66406764212115,
          7.429073806830472
        ]
      }
    },
    {
      "type": "Feature",
      "properties": {
        "norad_id": 33492,
        "name": "GOSAT (IBUKI)",
        "group": "resource",
        "lat": 76.06178177102848,
        "lon": -41.004813690233476,
        "alt_km": 661.0298262014403,
        "timestamp": "2025-12-21T14:40:47.567411+00:00",
        "meta_object_name": "GOSAT (IBUKI)",
        "meta_object_id": "2009-002A",
        "meta_epoch": "2025-12-21T06:02:16.249344",
        "meta_mean_motion": 14.67540638,
        "meta_eccentricity": 9.905e-05,
        "meta_inclination": 98.0772,
        "meta_ra_of_asc_node": 103.7366,
        "meta_arg_of_pericenter": 101.6398,
        "meta_mean_anomaly": 258.4918,
        "meta_ephemeris_type": 0,
        "meta_classification_type": "U",
        "meta_norad_cat_id": 33492,
        "meta_element_set_no": 999,
        "meta_rev_at_epoch": 90536,
        "meta_bstar": 0.0001252109,
        "meta_mean_motion_dot": 6.62e-06,
        "meta_mean_motion_ddot": 0,
        "tle_line1": "1 33492U 09002A   25355.25157696  .00000662  00000+0  12521-3 0  9990",
        "tle_line2": "2 33492  98.0772 103.7366 0000990 101.6398 258.4918 14.67540638905362"
      },
      "geometry": {
        "type": "Point",
        "coordinates": [
          -41.004813690233476,
          76.06178177102848
        ]
      }
    },
    {
      "type": "Feature",
      "properties": {
        "norad_id": 35681,
        "name": "DEIMOS-1",
        "group": "resource",
        "lat": 54.633736030132226,
        "lon": 144.79143497040704,
        "alt_km": 638.3105129965279,
        "timestamp": "2025-12-21T14:40:47.567422+00:00",
        "meta_object_name": "DEIMOS-1",
        "meta_object_id": "2009-041A",
        "meta_epoch": "2025-12-21T06:17:20.510016",
        "meta_mean_motion": 14.7496328,
        "meta_eccentricity": 0.00025927,
        "meta_inclination": 97.7146,
        "meta_ra_of_asc_node": 155.4684,
        "meta_arg_of_pericenter": 66.3377,
        "meta_mean_anomaly": 293.8105,
        "meta_ephemeris_type": 0,
        "meta_classification_type": "U",
        "meta_norad_cat_id": 35681,
        "meta_element_set_no": 999,
        "meta_rev_at_epoch": 88065,
        "meta_bstar": 3.8588828e-05,
        "meta_mean_motion_dot": 2.12e-06,
        "meta_mean_motion_ddot": 0,
        "tle_line1": "1 35681U 09041A   25355.26204294  .00000212  00000+0  38589-4 0  9997",
        "tle_line2": "2 35681  97.7146 155.4684 0002592  66.3377 293.8105 14.74963280880651"
      },
      "geometry": {
        "type": "Point",
        "coordinates": [
          144.79143497040704,
          54.633736030132226
        ]
      }
    },
    {
      "type": "Feature",
      "properties": {
        "norad_id": 35682,
        "name": "DUBAISAT-1",
        "group": "resource",
        "lat": -20.25145107472635,
        "lon": 129.12760793528233,
        "alt_km": 648.0039546688258,
        "timestamp": "2025-12-21T14:40:47.567433+00:00",
        "meta_object_name": "DUBAISAT-1",
        "meta_object_id": "2009-041B",
        "meta_epoch": "2025-12-20T20:51:31.286304",
        "meta_mean_motion": 14.74624249,
        "meta_eccentricity": 0.0009246,
        "meta_inclination": 97.9798,
        "meta_ra_of_asc_node": 125.4295,
        "meta_arg_of_pericenter": 285.257,
        "meta_mean_anomaly": 74.7616,
        "meta_ephemeris_type": 0,
        "meta_classification_type": "U",
        "meta_norad_cat_id": 35682,
        "meta_element_set_no": 999,
        "meta_rev_at_epoch": 87881,
        "meta_bstar": 0.0001417,
        "meta_mean_motion_dot": 8.95e-06,
        "meta_mean_motion_ddot": 0,
        "tle_line1": "1 35682U 09041B   25354.86911211  .00000895  00000+0  14170-3 0  9993",
        "tle_line2": "2 35682  97.9798 125.4295 0009246 285.2570  74.7616 14.74624249878819"
      },
      "geometry": {
        "type": "Point",
        "coordinates": [
          129.12760793528233,
          -20.25145107472635
        ]
      }
    },
    {
      "type": "Feature",
      "properties": {
        "norad_id": 35931,
        "name": "OCEANSAT-2",
        "group": "resource",
        "lat": -72.81723381897952,
        "lon": 23.187966050017494,
        "alt_km": 903.7053670609084,
        "timestamp": "2025-12-21T14:40:47.567444+00:00",
        "meta_object_name": "OCEANSAT-2",
        "meta_object_id": "2009-051A",
        "meta_epoch": "2025-12-21T06:27:28.734048",
        "meta_mean_motion": 13.99623027,
        "meta_eccentricity": 0.00159999,
        "meta_inclination": 98.2217,
        "meta_ra_of_asc_node": 355.0043,
        "meta_arg_of_pericenter": 22.6982,
        "meta_mean_anomaly": 337.4889,
        "meta_ephemeris_type": 0,
        "meta_classification_type": "U",
        "meta_norad_cat_id": 35931,
        "meta_element_set_no": 999,
        "meta_rev_at_epoch": 85444,
        "meta_bstar": -5.0575325e-05,
        "meta_mean_motion_dot": -1.11e-06,
        "meta_mean_motion_ddot": 0,
        "tle_line1": "1 35931U 09051A   25355.26908257 -.00000111  00000+0 -50575-4 0  9995",
        "tle_line2": "2 35931  98.2217 355.0043 0015999  22.6982 337.4889 13.99623027854443"
      },
      "geometry": {
        "type": "Point",
        "coordinates": [
          23.187966050017494,
          -72.81723381897952
        ]
      }
    },
    {
      "type": "Feature",
      "properties": {
        "norad_id": 35946,
        "name": "WORLDVIEW-2 (WV-2)",
        "group": "resource",
        "lat": -2.2628893675615966,
        "lon": -113.76325356500708,
        "alt_km": 771.6551109089223,
        "timestamp": "2025-12-21T14:40:47.567454+00:00",
        "meta_object_name": "WORLDVIEW-2 (WV-2)",
        "meta_object_id": "2009-055A",
        "meta_epoch": "2025-12-21T05:29:03.486048",
        "meta_mean_motion": 14.37727486,
        "meta_eccentricity": 0.00048882,
        "meta_inclination": 98.4778,
        "meta_ra_of_asc_node": 66.1966,
        "meta_arg_of_pericenter": 49.8394,
        "meta_mean_anomaly": 310.3221,
        "meta_ephemeris_type": 0,
        "meta_classification_type": "U",
        "meta_norad_cat_id": 35946,
        "meta_element_set_no": 999,
        "meta_rev_at_epoch": 85007,
        "meta_bstar": 5.9773344e-05,
        "meta_mean_motion_dot": 1.36e-06,
        "meta_mean_motion_ddot": 0,
        "tle_line1": "1 35946U 09055A   25355.22851257  .00000136  00000+0  59773-4 0  9992",
        "tle_line2": "2 35946  98.4778  66.1966 0004888  49.8394 310.3221 14.37727486850072"
      },
      "geometry": {
        "type": "Point",
        "coordinates": [
          -113.76325356500708,
          -2.2628893675615966
        ]
      }
    }
  ]
}